COMMENT,ORIGINATOR,NORAD_CAT_ID,OBJECT_NAME,OBJECT_TYPE,CLASSIFICATION_TYPE,INTLDES,EPOCH,EPOCH_MICROSECONDS,MEAN_MOTION,ECCENTRICITY,INCLINATION,RA_OF_ASC_NODE,ARG_OF_PERICENTER,MEAN_ANOMALY,EPHEMERIS_TYPE,ELEMENT_SET_NO,REV_AT_EPOCH,BSTAR,MEAN_MOTION_DOT,MEAN_MOTION_DDOT,FILE,TLE_LINE0,TLE_LINE1,TLE_LINE2,OBJECT_ID,OBJECT_NUMBER,SEMIMAJOR_AXIS,PERIOD,APOGEE,PERIGEE,DECAYED
"GENERATED VIA SPACETRACK.ORG API","18 SPCS","55095","SPACEBEE-162","PAYLOAD","U","23001CQ","2023-10-16 03:52:13","75680","15.25115643","0.0012164","97.4621","348.4631","300.8041","59.1999","0","999","4350","0.001217","0.00030559","0","4035512","0 SPACEBEE-162","1 55095U 23001CQ  23289.16126245  .00030559  00000-0  12170-2 0  9996","2 55095  97.4621 348.4631 0012164 300.8041  59.1999 15.25115643 43501","2023-001CQ","55095","6868.575","94.419","498.795","482.085","0"
"GENERATED VIA SPACETRACK.ORG API","18 SPCS","55095","SPACEBEE-162","PAYLOAD","U","23001CQ","2023-10-16 03:52:13","75680","15.25115643","0.0012164","97.4621","348.4631","300.8041","59.1999","0","999","4350","0.001217","0.00030559","0","4036830","0 SPACEBEE-162","1 55095U 23001CQ  23289.16126245  .00030559  00000-0  12170-2 0  9996","2 55095  97.4621 348.4631 0012164 300.8041  59.1999 15.25115643 43501","2023-001CQ","55095","6868.575","94.419","498.795","482.085","0"
"GENERATED VIA SPACETRACK.ORG API","18 SPCS","55095","SPACEBEE-162","PAYLOAD","U","23001CQ","2023-10-16 14:53:34","189440","15.25140101","0.0012127","97.4618","348.9209","299.0241","60.9781","0","999","4357","0.0010869","0.00027292","0","4037312","0 SPACEBEE-162","1 55095U 23001CQ  23289.62053460  .00027292  00000-0  10869-2 0  9998","2 55095  97.4618 348.9209 0012127 299.0241  60.9781 15.25140101 43576","2023-001CQ","55095","6868.502","94.418","498.696","482.037","0"
"GENERATED VIA SPACETRACK.ORG API","18 SPCS","55095","SPACEBEE-162","PAYLOAD","U","23001CQ","2023-10-17 03:29:23","224416","15.25167377","0.0012154","97.4613","349.4442","296.9487","63.0509","0","999","4365","0.0010339","0.00025974","0","4038796","0 SPACEBEE-162","1 55095U 23001CQ  23290.14540769  .00025974  00000-0  10339-2 0  9997","2 55095  97.4613 349.4442 0012154 296.9487  63.0509 15.25167377 43659","2023-001CQ","55095","6868.420","94.416","498.633","481.937","0"
"GENERATED VIA SPACETRACK.ORG API","18 SPCS","55095","SPACEBEE-162","PAYLOAD","U","23001CQ","2023-10-17 03:29:23","224416","15.25167377","0.0012154","97.4613","349.4442","296.9487","63.0509","0","999","4365","0.0010339","0.00025974","0","4039107","0 SPACEBEE-162","1 55095U 23001CQ  23290.14540769  .00025974  00000-0  10339-2 0  9997","2 55095  97.4613 349.4442 0012154 296.9487  63.0509 15.25167377 43659","2023-001CQ","55095","6868.420","94.416","498.633","481.937","0"
"GENERATED VIA SPACETRACK.ORG API","18 SPCS","55095","SPACEBEE-162","PAYLOAD","U","23001CQ","2023-10-18 03:06:30","555648","15.25221696","0.001218","97.4609","350.4251","292.947","67.0482","0","999","4380","0.001269","0.00031975","0","4040140","0 SPACEBEE-162","1 55095U 23001CQ  23291.12952032  .00031975  00000-0  12690-2 0  9996","2 55095  97.4609 350.4251 0012180 292.9470  67.0482 15.25221696 43807","2023-001CQ","55095","6868.257","94.413","498.487","481.756","0"
"GENERATED VIA SPACETRACK.ORG API","18 SPCS","55095","SPACEBEE-162","PAYLOAD","U","23001CQ","2023-10-19 02:43:34","785984","15.25283192","0.0012121","97.4608","351.4058","289.2051","70.7874","0","999","4395","0.0014931","0.00037732","0","4040749","0 SPACEBEE-162","1 55095U 23001CQ  23292.11359706  .00037732  00000-0  14931-2 0  9992","2 55095  97.4608 351.4058 0012121 289.2051  70.7874 15.25283192 43952","2023-001CQ","55095","6868.072","94.409","498.262","481.612","0"
"GENERATED VIA SPACETRACK.ORG API","18 SPCS","55095","SPACEBEE-162","PAYLOAD","U","23001CQ","2023-10-19 02:43:34","785984","15.25283192","0.0012121","97.4608","351.4058","289.2051","70.7874","0","999","4395","0.0014931","0.00037732","0","4042363","0 SPACEBEE-162","1 55095U 23001CQ  23292.11359706  .00037732  00000-0  14931-2 0  9992","2 55095  97.4608 351.4058 0012121 289.2051  70.7874 15.25283192 43952","2023-001CQ","55095","6868.072","94.409","498.262","481.612","0"
"GENERATED VIA SPACETRACK.ORG API","18 SPCS","55095","SPACEBEE-162","PAYLOAD","U","23001CQ","2023-10-19 15:19:19","484544","15.25320135","0.0012064","97.4608","351.9285","286.8417","73.1497","0","999","4403","0.0014431","0.000365","0","4042947","0 SPACEBEE-162","1 55095U 23001CQ  23292.63841996  .00036500  00000-0  14431-2 0  9993","2 55095  97.4608 351.9285 0012064 286.8417  73.1497 15.25320135 44031","2023-001CQ","55095","6867.961","94.406","498.112","481.541","0"
"GENERATED VIA SPACETRACK.ORG API","18 SPCS","55095","SPACEBEE-162","PAYLOAD","U","23001CQ","2023-10-20 03:55:03","14112","15.25355557","0.0012034","97.4607","352.4519","285.0051","74.9854","0","999","4411","0.0012678","0.00032072","0","4043556","0 SPACEBEE-162","1 55095U 23001CQ  23293.16322933  .00032072  00000-0  12678-2 0  9998","2 55095  97.4607 352.4519 0012034 285.0051  74.9854 15.25355557 44119","2023-001CQ","55095","6867.855","94.404","497.985","481.455","0"
"GENERATED VIA SPACETRACK.ORG API","18 SPCS","55095","SPACEBEE-162","PAYLOAD","U","23001CQ","2023-10-21 11:24:17","706816","15.25440502","0.0012096","97.4607","353.7599","280.137","79.8504","0","999","4431","0.0014341","0.00036402","0","4045993","0 SPACEBEE-162","1 55095U 23001CQ  23294.47520494  .00036402  00000-0  14341-2 0  9995","2 55095  97.4607 353.7599 0012096 280.1370  79.8504 15.25440502 44312","2023-001CQ","55095","6867.600","94.399","497.772","481.158","0"
"GENERATED VIA SPACETRACK.ORG API","18 SPCS","55095","SPACEBEE-162","PAYLOAD","U","23001CQ","2023-10-21 11:24:17","706816","15.25440502","0.0012096","97.4607","353.7599","280.137","79.8504","0","999","4431","0.0014341","0.00036402","0","4046008","0 SPACEBEE-162","1 55095U 23001CQ  23294.47520494  .00036402  00000-0  14341-2 0  9995","2 55095  97.4607 353.7599 0012096 280.1370  79.8504 15.25440502 44312","2023-001CQ","55095","6867.600","94.399","497.772","481.158","0"
"GENERATED VIA SPACETRACK.ORG API","18 SPCS","55095","SPACEBEE-162","PAYLOAD","U","23001CQ","2023-10-21 22:25:30","266976","15.25466038","0.0012124","97.4607","354.2177","278.2894","81.6969","0","999","4438","0.0010638","0.00026971","0","4046563","0 SPACEBEE-162","1 55095U 23001CQ  23294.93437809  .00026971  00000-0  10638-2 0  9998","2 55095  97.4607 354.2177 0012124 278.2894  81.6969 15.25466038 44386","2023-001CQ","55095","6867.523","94.397","497.715","481.062","0"
"GENERATED VIA SPACETRACK.ORG API","18 SPCS","55095","SPACEBEE-162","PAYLOAD","U","23001CQ","2023-10-22 09:26:42","85824","15.25493632","0.0012129","97.4609","354.6755","276.6334","83.3523","0","999","4445","0.00091156","0.00023108","0","4047885","0 SPACEBEE-162","1 55095U 23001CQ  23295.39354266  .00023108  00000-0  91156-3 0  9998","2 55095  97.4609 354.6755 0012129 276.6334  83.3523 15.25493632 44453","2023-001CQ","55095","6867.441","94.396","497.635","480.976","0"
"GENERATED VIA SPACETRACK.ORG API","18 SPCS","55095","SPACEBEE-162","PAYLOAD","U","23001CQ","2023-10-22 09:26:42","85824","15.25493632","0.0012129","97.4609","354.6755","276.6334","83.3523","0","999","4445","0.00091156","0.00023108","0","4047923","0 SPACEBEE-162","1 55095U 23001CQ  23295.39354266  .00023108  00000-0  91156-3 0  9998","2 55095  97.4609 354.6755 0012129 276.6334  83.3523 15.25493632 44453","2023-001CQ","55095","6867.441","94.396","497.635","480.976","0"
"GENERATED VIA SPACETRACK.ORG API","18 SPCS","55095","SPACEBEE-162","PAYLOAD","U","23001CQ","2023-10-22 22:02:20","434848","15.25528762","0.0012116","97.461","355.1988","274.6625","85.3229","0","999","4453","0.0011298","0.0002871","0","4048538","0 SPACEBEE-162","1 55095U 23001CQ  23295.91829207  .00028710  00000-0  11298-2 0  9990","2 55095  97.4610 355.1988 0012116 274.6625  85.3229 15.25528762 44533","2023-001CQ","55095","6867.335","94.394","497.521","480.880","0"
"GENERATED VIA SPACETRACK.ORG API","18 SPCS","55095","SPACEBEE-162","PAYLOAD","U","23001CQ","2023-10-23 02:45:42","114528","15.25540403","0.0012116","97.461","355.395","273.8999","86.0854","0","999","4456","0.0011443","0.00029091","0","4049019","0 SPACEBEE-162","1 55095U 23001CQ  23296.11507077  .00029091  00000-0  11443-2 0  9996","2 55095  97.4610 355.3950 0012116 273.8999  86.0854 15.25540403 44560","2023-001CQ","55095","6867.300","94.393","497.486","480.845","0"
"GENERATED VIA SPACETRACK.ORG API","18 SPCS","55095","SPACEBEE-162","PAYLOAD","U","23001CQ","2023-10-23 10:37:57","969984","15.25556528","0.0012088","97.4613","355.7221","272.7129","87.2725","0","999","4461","0.0010547","0.00026812","0","4050204","0 SPACEBEE-162","1 55095U 23001CQ  23296.44303206  .00026812  00000-0  10547-2 0  9992","2 55095  97.4613 355.7221 0012088 272.7129  87.2725 15.25556528 44610","2023-001CQ","55095","6867.252","94.392","497.418","480.816","0"
"GENERATED VIA SPACETRACK.ORG API","18 SPCS","55095","SPACEBEE-162","PAYLOAD","U","23001CQ","2023-10-24 03:56:55","981248","15.25588565","0.0012019","97.4613","356.4417","269.8377","90.1484","0","999","4472","0.0010137","0.00025787","0","4050428","0 SPACEBEE-162","1 55095U 23001CQ  23297.16453682  .00025787  00000-0  10137-2 0  9991","2 55095  97.4613 356.4417 0012019 269.8377  90.1484 15.25588565 44724","2023-001CQ","55095","6867.156","94.390","497.274","480.767","0"
"GENERATED VIA SPACETRACK.ORG API","18 SPCS","55095","SPACEBEE-162","PAYLOAD","U","23001CQ","2023-10-24 10:14:43","959552","15.25598727","0.001204","97.4612","356.7032","268.4867","91.4991","0","999","4476","0.00087271","0.00022187","0","4051588","0 SPACEBEE-162","1 55095U 23001CQ  23297.42689768  .00022187  00000-0  87271-3 0  9991","2 55095  97.4612 356.7032 0012040 268.4867  91.4991 15.25598727 44764","2023-001CQ","55095","6867.125","94.389","497.258","480.722","0"
